{
  "type": "FeatureCollection",
  "features": [
    {
      "type": "Feature",
      "properties": {
        "norad_id": 15362,
        "name": "NOVA 3",
        "group": "nnss",
        "lat": -16.534812242160676,
        "lon": 80.54255490483743,
        "alt_km": 1154.7876542340018,
        "timestamp": "2025-12-10T07:43:55.048029+00:00",
        "meta_object_name": "NOVA 3",
        "meta_object_id": "1984-110A",
        "meta_epoch": "2025-12-09T13:43:18.996096",
        "meta_mean_motion": 13.23044071,
        "meta_eccentricity": 0.0030735,
        "meta_inclination": 90.1223,
        "meta_ra_of_asc_node": 80.4974,
        "meta_arg_of_pericenter": 340.9141,
        "meta_mean_anomaly": 30.4969,
        "meta_ephemeris_type": 0,
        "meta_classification_type": "U",
        "meta_norad_cat_id": 15362,
        "meta_element_set_no": 999,
        "meta_rev_at_epoch": 98657,
        "meta_bstar": 0.00021782,
        "meta_mean_motion_dot": 1e-06,
        "meta_mean_motion_ddot": 0,
        "tle_line1": "1 15362U 84110A   25343.57174764  .00000100  00000+0  21782-3 0  9992",
        "tle_line2": "2 15362  90.1223  80.4974 0030735 340.9141  30.4969 13.23044071986579"
      },
      "geometry": {
        "type": "Point",
        "coordinates": [
          80.54255490483743,
          -16.534812242160676
        ]
      }
    },
    {
      "type": "Feature",
      "properties": {
        "norad_id": 15935,
        "name": "OSCAR 30",
        "group": "nnss",
        "lat": -50.2730473560484,
        "lon": 100.00618132656633,
        "alt_km": 1228.571074860426,
        "timestamp": "2025-12-10T07:43:55.048040+00:00",
        "meta_object_name": "OSCAR 30",
        "meta_object_id": "1985-066A",
        "meta_epoch": "2025-12-09T18:25:09.306048",
        "meta_mean_motion": 13.3607769,
        "meta_eccentricity": 0.0169422,
        "meta_inclination": 90.165,
        "meta_ra_of_asc_node": 99.7985,
        "meta_arg_of_pericenter": 92.2003,
        "meta_mean_anomaly": 72.3872,
        "meta_ephemeris_type": 0,
        "meta_classification_type": "U",
        "meta_norad_cat_id": 15935,
        "meta_element_set_no": 999,
        "meta_rev_at_epoch": 96413,
        "meta_bstar": 0.00028719,
        "meta_mean_motion_dot": 1.7e-06,
        "meta_mean_motion_ddot": 0,
        "tle_line1": "1 15935U 85066A   25343.76746882  .00000170  00000+0  28719-3 0  9990",
        "tle_line2": "2 15935  90.1650  99.7985 0169422  92.2003  72.3872 13.36077690964137"
      },
      "geometry": {
        "type": "Point",
        "coordinates": [
          100.00618132656633,
          -50.2730473560484
        ]
      }
    },
    {
      "type": "Feature",
      "properties": {
        "norad_id": 15936,
        "name": "OSCAR 24",
        "group": "nnss",
        "lat": 25.680828895727693,
        "lon": 92.17650622617062,
        "alt_km": 1080.6050368332535,
        "timestamp": "2025-12-10T07:43:55.048050+00:00",
        "meta_object_name": "OSCAR 24",
        "meta_object_id": "1985-066B",
        "meta_epoch": "2025-12-09T13:41:01.087008",
        "meta_mean_motion": 13.35935118,
        "meta_eccentricity": 0.0170472,
        "meta_inclination": 90.1788,
        "meta_ra_of_asc_node": 92.2493,
        "meta_arg_of_pericenter": 99.1842,
        "meta_mean_anomaly": 273.8521,
        "meta_ephemeris_type": 0,
        "meta_classification_type": "U",
        "meta_norad_cat_id": 15936,
        "meta_element_set_no": 999,
        "meta_rev_at_epoch": 96601,
        "meta_bstar": 0.00024605,
        "meta_mean_motion_dot": 1.47e-06,
        "meta_mean_motion_ddot": 0,
        "tle_line1": "1 15936U 85066B   25343.57015147  .00000147  00000+0  24605-3 0  9997",
        "tle_line2": "2 15936  90.1788  92.2493 0170472  99.1842 273.8521 13.35935118966011"
      },
      "geometry": {
        "type": "Point",
        "coordinates": [
          92.17650622617062,
          25.680828895727693
        ]
      }
    },
    {
      "type": "Feature",
      "properties": {
        "norad_id": 17070,
        "name": "POLAR BEAR",
        "group": "nnss",
        "lat": -62.43852559185654,
        "lon": 4.603418072168419,
        "alt_km": 1001.2216887640907,
        "timestamp": "2025-12-10T07:43:55.048061+00:00",
        "meta_object_name": "POLAR BEAR",
        "meta_object_id": "1986-088A",
        "meta_epoch": "2025-12-09T11:40:55.884288",
        "meta_mean_motion": 13.75249895,
        "meta_eccentricity": 0.00407734,
        "meta_inclination": 89.6176,
        "meta_ra_of_asc_node": 183.9039,
        "meta_arg_of_pericenter": 128.6786,
        "meta_mean_anomaly": 299.7884,
        "meta_ephemeris_type": 0,
        "meta_classification_type": "U",
        "meta_norad_cat_id": 17070,
        "meta_element_set_no": 999,
        "meta_rev_at_epoch": 95934,
        "meta_bstar": 0.00016163387,
        "meta_mean_motion_dot": 1.67e-06,
        "meta_mean_motion_ddot": 0,
        "tle_line1": "1 17070U 86088A   25343.48675792  .00000167  00000+0  16163-3 0  9993",
        "tle_line2": "2 17070  89.6176 183.9039 0040773 128.6786 299.7884 13.75249895959346"
      },
      "geometry": {
        "type": "Point",
        "coordinates": [
          4.603418072168419,
          -62.43852559185654
        ]
      }
    },
    {
      "type": "Feature",
      "properties": {
        "norad_id": 18361,
        "name": "OSCAR 27",
        "group": "nnss",
        "lat": 43.2060228341096,
        "lon": 78.8300880440543,
        "alt_km": 1163.5374367692457,
        "timestamp": "2025-12-10T07:43:55.048071+00:00",
        "meta_object_name": "OSCAR 27",
        "meta_object_id": "1987-080A",
        "meta_epoch": "2025-12-09T13:39:29.711232",
        "meta_mean_motion": 13.4490578,
        "meta_eccentricity": 0.0102683,
        "meta_inclination": 90.3743,
        "meta_ra_of_asc_node": 79.1537,
        "meta_arg_of_pericenter": 232.9828,
        "meta_mean_anomaly": 126.1891,
        "meta_ephemeris_type": 0,
        "meta_classification_type": "U",
        "meta_norad_cat_id": 18361,
        "meta_element_set_no": 999,
        "meta_rev_at_epoch": 87514,
        "meta_bstar": 0.00029988,
        "meta_mean_motion_dot": 1.89e-06,
        "meta_mean_motion_ddot": 0,
        "tle_line1": "1 18361U 87080A   25343.56909388  .00000189  00000+0  29988-3 0  9993",
        "tle_line2": "2 18361  90.3743  79.1537 0102683 232.9828 126.1891 13.44905780875147"
      },
      "geometry": {
        "type": "Point",
        "coordinates": [
          78.8300880440543,
          43.2060228341096
        ]
      }
    },
    {
      "type": "Feature",
      "properties": {
        "norad_id": 18362,
        "name": "OSCAR 29",
        "group": "nnss",
        "lat": 59.55424660989289,
        "lon": 79.0014897815565,
        "alt_km": 1162.055139278944,
        "timestamp": "2025-12-10T07:43:55.048081+00:00",
        "meta_object_name": "OSCAR 29",
        "meta_object_id": "1987-080B",
        "meta_epoch": "2025-12-09T13:37:43.650048",
        "meta_mean_motion": 13.4444762,
        "meta_eccentricity": 0.0103785,
        "meta_inclination": 90.3754,
        "meta_ra_of_asc_node": 79.6123,
        "meta_arg_of_pericenter": 256.3819,
        "meta_mean_anomaly": 114.2703,
        "meta_ephemeris_type": 0,
        "meta_classification_type": "U",
        "meta_norad_cat_id": 18362,
        "meta_element_set_no": 999,
        "meta_rev_at_epoch": 87467,
        "meta_bstar": 0.00027686,
        "meta_mean_motion_dot": 1.74e-06,
        "meta_mean_motion_ddot": 0,
        "tle_line1": "1 18362U 87080B   25343.56786632  .00000174  00000+0  27686-3 0  9996",
        "tle_line2": "2 18362  90.3754  79.6123 0103785 256.3819 114.2703 13.44447620874671"
      },
      "geometry": {
        "type": "Point",
        "coordinates": [
          79.0014897815565,
          59.55424660989289
        ]
      }
    },
    {
      "type": "Feature",
      "properties": {
        "norad_id": 19070,
        "name": "OSCAR 23",
        "group": "nnss",
        "lat": -19.655597089456773,
        "lon": 16.432751308319762,
        "alt_km": 1287.6542815404728,
        "timestamp": "2025-12-10T07:43:55.048091+00:00",
        "meta_object_name": "OSCAR 23",
        "meta_object_id": "1988-033A",
        "meta_epoch": "2025-12-09T12:36:56.310336",
        "meta_mean_motion": 13.27786505,
        "meta_eccentricity": 0.0189262,
        "meta_inclination": 90.3215,
        "meta_ra_of_asc_node": 16.293,
        "meta_arg_of_pericenter": 188.8642,
        "meta_mean_anomaly": 305.478,
        "meta_ephemeris_type": 0,
        "meta_classification_type": "U",
        "meta_norad_cat_id": 19070,
        "meta_element_set_no": 999,
        "meta_rev_at_epoch": 82210,
        "meta_bstar": 0.00020442,
        "meta_mean_motion_dot": 1.1e-06,
        "meta_mean_motion_ddot": 0,
        "tle_line1": "1 19070U 88033A   25343.52565174  .00000110  00000+0  20442-3 0  9997",
        "tle_line2": "2 19070  90.3215  16.2930 0189262 188.8642 305.4780 13.27786505822109"
      },
      "geometry": {
        "type": "Point",
        "coordinates": [
          16.432751308319762,
          -19.655597089456773
        ]
      }
    }
  ]
}